ONEWEB-0235             
1 48771U 21045E   24343.83375530  .00000174  00000+0  42910-3 0  9999
2 48771  87.9070   9.7564 0001451  72.1832 287.9457 13.15549267171368
ONEWEB-0242             
1 48772U 21045F   24343.82742401  .00000111  00000+0  25979-3 0  9991
2 48772  87.9069   9.7446 0001734  85.7364 274.3965 13.15548761171407
ONEWEB-0241             
1 48773U 21045G   24343.81472457 -.00000157  00000+0 -45142-3 0  9998
2 48773  87.9079   9.8105 0001350  94.4474 265.6810 13.15547016171319
ONEWEB-0243             
1 48774U 21045H   24343.84641198 -.00000218  00000+0 -61386-3 0  9998
2 48774  87.9080   9.7646 0001584  75.3770 284.7536 13.15548946171340
ONEWEB-0222             
1 48775U 21045J   24343.82979255  .00000109  00000+0  25620-3 0  9993
2 48775  87.9070   9.7528 0001567  90.7296 269.4014 13.15548152171388
ONEWEB-0244             
1 48776U 21045K   24343.62776651 -.00000020  00000+0 -87943-4 0  9998
2 48776  87.9068   9.7729 0001799  87.4746 272.6590 13.15548669171927
ONEWEB-0247             
1 48777U 21045L   24343.85276858  .00000125  00000+0  29813-3 0  9993
2 48777  87.9076   9.7827 0001552  57.9269 302.2012 13.15547815171397
ONEWEB-0245             
1 48778U 21045M   24343.77195354  .00000187  00000+0  46349-3 0  9997
2 48778  87.9070   9.7773 0001510  95.2938 264.8364 13.15548373171353
